NORAD_CAT_ID,OBJECT_NAME,OBJECT_TYPE,EPOCH,MEAN_MOTION,ECCENTRICITY,INCLINATION,RA_OF_ASC_NODE,ARG_OF_PERICENTER,MEAN_ANOMALY,BSTAR,MEAN_MOTION_DOT,MEAN_MOTION_DDOT,TLE_LINE0,TLE_LINE1,TLE_LINE2,SEMIMAJOR_AXIS,PERIOD,APOGEE,PERIGEE,DECAYED
55434.0,STARLINK-5621,PAYLOAD,2023-03-07 06:00:00,15.22118432,0.0003056,70.0011,354.5149,271.0799,339.2538,-0.056333,-0.01190535,0.0,0 STARLINK-5621,1 55434U 23014AV  23066.25001157 -.01190535  00000-0 -56333-1 0  9996,2 55434  70.0011 354.5149 0003056 271.0799 339.2538 15.22118432  5582,6877.589,94.605,501.556,497.352,0.0
55434.0,STARLINK-5621,PAYLOAD,2023-03-07 22:00:00,15.2042773,0.0003258,70.0014,352.7736,265.0885,35.2061,-0.062073,-0.0124351,0.0,0 STARLINK-5621,1 55434U 23014AV  23066.91667824 -.01243510  00000-0 -62073-1 0  9998,2 55434  70.0014 352.7736 0003258 265.0885  35.2061 15.20427730  5687,6882.686,94.71,506.794,502.309,0.0
55434.0,STARLINK-5621,PAYLOAD,2023-03-08 14:00:01,15.18657593,0.0003225,70.0011,351.0365,265.6311,80.5218,-0.059771,-0.011452,0.0,0 STARLINK-5621,1 55434U 23014AV  23067.58334491 -.01145200  00000-0 -59771-1 0  9991,2 55434  70.0011 351.0365 0003225 265.6311  80.5218 15.18657593  5785,6888.034,94.821,512.12,507.677,0.0
55434.0,STARLINK-5621,PAYLOAD,2023-03-08 22:00:00,15.17847363,0.0003325,70.0015,350.1698,268.7069,98.8137,-0.066641,-0.01238928,0.0,0 STARLINK-5621,1 55434U 23014AV  23067.91667824 -.01238928  00000-0 -66641-1 0  9991,2 55434  70.0015 350.1698 0003325 268.7069  98.8137 15.17847363  5836,6890.485,94.871,514.641,510.059,0.0
55434.0,STARLINK-5621,PAYLOAD,2023-03-09 22:00:00,15.15268305,0.0003248,70.0013,347.5764,272.0638,153.413,-0.071573,-0.01236038,0.0,0 STARLINK-5621,1 55434U 23014AV  23068.91667824 -.01236038  00000-0 -71573-1 0  9992,2 55434  70.0013 347.5764 0003248 272.0638 153.4130 15.15268305  5980,6898.301,95.033,522.407,517.926,0.0
55434.0,STARLINK-5621,PAYLOAD,2023-03-10 22:00:00,15.12682338,0.0003225,70.0011,344.9929,267.9726,206.192,-0.076075,-0.01222415,0.0,0 STARLINK-5621,1 55434U 23014AV  23069.91667824 -.01222415  00000-0 -76075-1 0  9999,2 55434  70.0011 344.9929 0003225 267.9726 206.1920 15.12682338  1306,6906.161,95.195,530.253,525.799,0.0
55434.0,STARLINK-5621,PAYLOAD,2023-03-11 06:00:00,15.11828644,0.0003102,70.0006,344.1342,274.5348,213.7904,-0.07739,-0.01214822,0.0,0 STARLINK-5621,1 55434U 23014AV  23070.25001157 -.01214822  00000-0 -77390-1 0  9993,2 55434  70.0006 344.1342 0003102 274.5348 213.7904 15.11828644  6198,6908.76,95.249,532.768,528.482,0.0
55434.0,STARLINK-5621,PAYLOAD,2023-03-11 14:00:01,15.10928976,0.0003081,70.0007,343.2766,267.9931,233.5449,-0.074264,-0.01142869,0.0,0 STARLINK-5621,1 55434U 23014AV  23070.58335648 -.01142869  00000-0 -74264-1 0  9992,2 55434  70.0007 343.2766 0003081 267.9931 233.5449 15.10928976  1309,6911.503,95.306,535.497,531.238,0.0
55434.0,STARLINK-5621,PAYLOAD,2023-03-11 22:00:00,15.10106895,0.0003056,70.0009,342.42,268.9986,244.5801,-0.081851,-0.01223973,0.0,0 STARLINK-5621,1 55434U 23014AV  23070.91667824 -.01223973  00000-0 -81851-1 0  9999,2 55434  70.0009 342.4200 0003056 268.9986 244.5801 15.10106895  1300,6914.011,95.357,537.989,533.763,0.0
55434.0,STARLINK-5621,PAYLOAD,2023-03-12 06:00:00,15.09251619,0.0002971,70.0005,341.5645,272.7333,251.9165,-0.083111,-0.01214624,0.0,0 STARLINK-5621,1 55434U 23014AV  23071.25001157 -.01214624  00000-0 -83111-1 0  9992,2 55434  70.0005 341.5645 0002971 272.7333 251.9165 15.09251619  6340,6916.623,95.412,540.542,536.433,0.0
55434.0,STARLINK-5621,PAYLOAD,2023-03-12 14:00:01,15.08356002,0.0003011,70.0005,340.7103,266.1254,268.5822,-0.080032,-0.01146884,0.0,0 STARLINK-5621,1 55434U 23014AV  23071.58334491 -.01146884  00000-0 -80032-1 0  9999,2 55434  70.0005 340.7103 0003011 266.1254 268.5822 15.08356002  1301,6919.36,95.468,543.309,539.142,0.0
55434.0,STARLINK-5621,PAYLOAD,2023-03-12 22:00:00,15.07523749,0.0003032,70.0008,339.8571,267.8917,275.8337,-0.087064,-0.01213627,0.0,0 STARLINK-5621,1 55434U 23014AV  23071.91667824 -.01213627  00000-0 -87064-1 0  9997,2 55434  70.0008 339.8571 0003032 267.8917 275.8337 15.07523749  1304,6921.907,95.521,545.87,541.673,0.0
55434.0,STARLINK-5621,PAYLOAD,2023-03-13 06:00:00,15.06677917,0.0002927,70.0003,339.005,270.9612,280.7417,-0.089573,-0.01219604,0.0,0 STARLINK-5621,1 55434U 23014AV  23072.25001157 -.01219604  00000-0 -89573-1 0  9994,2 55434  70.0003 339.0050 0002927 270.9612 280.7417 15.06677917  6497,6924.497,95.575,548.389,544.335,0.0
55434.0,STARLINK-5621,PAYLOAD,2023-03-13 14:00:01,15.05781255,0.0003015,70.0005,338.1541,264.6988,293.9724,-0.085985,-0.01148649,0.0,0 STARLINK-5621,1 55434U 23014AV  23072.58334491 -.01148649  00000-0 -85985-1 0  9993,2 55434  70.0005 338.1541 0003015 264.6988 293.9724 15.05781255  1301,6927.246,95.631,551.199,547.022,0.0
55434.0,STARLINK-5621,PAYLOAD,2023-03-13 22:00:00,15.04941189,0.0003022,70.0007,337.3043,267.3335,297.2681,-0.092578,-0.01204073,0.0,0 STARLINK-5621,1 55434U 23014AV  23072.91667824 -.01204073  00000-0 -92578-1 0  9999,2 55434  70.0007 337.3043 0003022 267.3335 297.2681 15.04941189  1307,6929.823,95.685,553.782,549.594,0.0
55434.0,STARLINK-5621,PAYLOAD,2023-03-14 06:00:00,15.04105714,0.0002917,70.0003,336.4556,269.8822,299.6035,-0.09661,-0.01242109,0.0,0 STARLINK-5621,1 55434U 23014AV  23073.25001157 -.01242109  00000-0 -96610-1 0  9991,2 55434  70.0003 336.4556 0002917 269.8822 299.6035 15.04105714  6649,6932.389,95.738,556.276,552.232,0.0
55434.0,STARLINK-5621,PAYLOAD,2023-03-14 14:00:01,15.03207213,0.0003023,70.0005,335.6082,263.9222,309.4422,-0.092426,-0.01151936,0.0,0 STARLINK-5621,1 55434U 23014AV  23073.58334491 -.01151936  00000-0 -92426-1 0  9995,2 55434  70.0005 335.6082 0003023 263.9222 309.4422 15.03207213  1308,6935.151,95.795,559.113,554.92,0.0
55434.0,STARLINK-5621,PAYLOAD,2023-03-14 22:00:00,15.02359225,0.0003017,70.0007,334.7619,267.1994,309.008,-0.098402,-0.01210021,0.0,0 STARLINK-5621,1 55434U 23014AV  23073.91667824 -.01210021  00000-0 -98402-1 0  9992,2 55434  70.0007 334.7619 0003017 267.1994 309.0080 15.02359225  1307,6937.761,95.849,561.719,557.533,0.0
55434.0,STARLINK-5621,PAYLOAD,2023-03-15 14:00:01,15.00636062,0.0003023,70.0007,333.0726,263.7325,315.0539,-0.099734,-0.01160382,0.0,0 STARLINK-5621,1 55434U 23014AV  23074.58334491 -.01160382  00000-0 -99734-1 0  9990,2 55434  70.0007 333.0726 0003023 263.7325 315.0539 15.00636062  1306,6943.071,95.959,567.035,562.837,0.0
55434.0,STARLINK-5621,PAYLOAD,2023-03-15 22:00:00,14.99606824,0.0003175,70.0007,332.2302,268.0398,310.526,-0.055859,-0.00645246,0.0,0 STARLINK-5621,1 55434U 23014AV  23074.91667824 -.00645246  00000-0 -55859-1 0  9992,2 55434  70.0007 332.2302 0003175 268.0398 310.5260 14.99606824  1304,6946.247,96.025,570.318,565.907,0.0
55434.0,STARLINK-5621,PAYLOAD,2023-03-16 06:00:00,14.991511,0.0003268,70.0005,331.3878,271.1851,306.0977,-0.0021343,-0.00026012,0.0,0 STARLINK-5621,1 55434U 23014AV  23075.25001157 -.00026012  00000-0 -21343-2 0  9997,2 55434  70.0005 331.3878 0003268 271.1851 306.0977 14.99151100  6944,6947.655,96.054,571.79,567.249,0.0
55434.0,STARLINK-5621,PAYLOAD,2023-03-16 14:00:01,14.9909077,0.0003255,70.0006,330.5463,263.0805,312.6793,0.0067141,0.00082583,0.0,0 STARLINK-5621,1 55434U 23014AV  23075.58334491  .00082583  00000-0  67141-2 0  9992,2 55434  70.0006 330.5463 0003255 263.0805 312.6793 14.99090770  1300,6947.841,96.058,571.968,567.445,0.0
55434.0,STARLINK-5621,PAYLOAD,2023-03-16 22:00:00,14.99160092,0.0003298,70.0009,329.7047,266.0623,308.128,-0.003756,-0.0004559,0.0,0 STARLINK-5621,1 55434U 23014AV  23075.91667824 -.00045590  00000-0 -37560-2 0  9999,2 55434  70.0009 329.7047 0003298 266.0623 308.1280 14.99160092  7042,6947.627,96.054,571.783,567.201,0.0
55434.0,STARLINK-5621,PAYLOAD,2023-03-17 06:00:00,14.9919588,0.0003018,70.0006,328.863,267.5112,305.1876,-0.01133,-0.00135713,0.0,0 STARLINK-5621,1 55434U 23014AV  23076.25001157 -.00135713  00000-0 -11330-1 0  9991,2 55434  70.0006 328.8630 0003018 267.5112 305.1876 14.99195880  7092,6947.517,96.051,571.478,567.285,0.0
55434.0,STARLINK-5621,PAYLOAD,2023-03-17 14:00:01,14.99068646,0.0003078,70.0007,328.0215,258.9402,312.2245,0.0061618,0.00075662,0.0,0 STARLINK-5621,1 55434U 23014AV  23076.58334491  .00075662  00000-0  61618-2 0  9996,2 55434  70.0007 328.0215 0003078 258.9402 312.2245 14.99068646  7140,6947.91,96.06,571.913,567.636,0.0
55434.0,STARLINK-5621,PAYLOAD,2023-03-17 22:00:00,14.99118459,0.0003086,70.0009,327.18,262.0115,307.5574,-0.00035954,-4.469e-05,0.0,0 STARLINK-5621,1 55434U 23014AV  23076.91667824 -.00004469  00000-0 -35954-3 0  9996,2 55434  70.0009 327.1800 0003086 262.0115 307.5574 14.99118459  1300,6947.756,96.056,571.765,567.477,0.0
55434.0,STARLINK-5621,PAYLOAD,2023-03-18 06:00:00,14.99138698,0.0003017,70.0006,326.3384,264.8768,303.1155,-0.0013444,-0.00016436,0.0,0 STARLINK-5621,1 55434U 23014AV  23077.25001157 -.00016436  00000-0 -13444-2 0  9991,2 55434  70.0006 326.3384 0003017 264.8768 303.1155 14.99138698  7246,6947.693,96.055,571.654,567.462,0.0
55434.0,STARLINK-5621,PAYLOAD,2023-03-18 22:00:00,14.99147454,0.0003079,70.0008,324.6554,262.2077,302.6759,-0.0016467,-0.00020105,0.0,0 STARLINK-5621,1 55434U 23014AV  23077.91667824 -.00020105  00000-0 -16467-2 0  9999,2 55434  70.0008 324.6554 0003079 262.2077 302.6759 14.99147454  7346,6947.666,96.055,571.67,567.392,0.0
55434.0,STARLINK-5621,PAYLOAD,2023-03-19 01:53:35,14.99140909,0.0002919,69.9991,324.2461,259.132,100.9511,6.3273e-05,6.77e-06,0.0,0 STARLINK-5621,1 55434U 23014AV  23078.07888341  .00000677  00000-0  63273-4 0  9995,2 55434  69.9991 324.2461 0002919 259.1320 100.9511 14.99140909  7360,6947.686,96.055,571.579,567.523,0.0
55434.0,STARLINK-5621,PAYLOAD,2023-03-19 09:54:00,14.99151365,0.0003185,69.999,323.403,260.4318,99.6482,-0.00017001,-2.165e-05,0.0,0 STARLINK-5621,1 55434U 23014AV  23078.41250177 -.00002165  00000-0 -17001-3 0  9996,2 55434  69.9990 323.4030 0003185 260.4318  99.6482 14.99151365  8359,6947.654,96.054,571.732,567.306,0.0
